{
  "60509": {
    "name": "FLOCK 4BE-29",
    "line1": "1 60509U 24149AT  26102.81203515  .00012615  00000+0  29745-3 0  9990",
    "line2": "2 60509  97.3809 187.8111 0003718 155.7374 204.4049 15.42037162 92337",
    "meta": {
      "display_name": "PlanetScope-60509",
      "type": "optical",
      "swath_km": 8.0,
      "resolution_m": 4.0,
      "off_nadir_deg": 0,
      "altitude_km": 525.0,
      "priority": 10
    }
  },
  "60512": {
    "name": "FLOCK 4BE-13",
    "line1": "1 60512U 24149AW  26102.83041572  .00010275  00000+0  25823-3 0  9992",
    "line2": "2 60512  97.3724 186.6525 0005215 137.7888 222.3760 15.40150249 92303",
    "meta": {
      "display_name": "PlanetScope-60512",
      "type": "optical",
      "swath_km": 8.0,
      "resolution_m": 4.0,
      "off_nadir_deg": 0,
      "altitude_km": 525.0,
      "priority": 10
    }
  },
  "60513": {
    "name": "FLOCK 4BE-27",
    "line1": "1 60513U 24149AX  26102.69647075  .00006217  00000+0  19537-3 0  9993",
    "line2": "2 60513  97.3832 184.5727 0004712 159.7350 200.4080 15.33340208 92102",
    "meta": {
      "display_name": "PlanetScope-60513",
      "type": "optical",
      "swath_km": 8.0,
      "resolution_m": 4.0,
      "off_nadir_deg": 0,
      "altitude_km": 525.0,
      "priority": 10
    }
  },
  "60514": {
    "name": "FLOCK 4BE-9",
    "line1": "1 60514U 24149AY  26102.45395793  .00011165  00000+0  29237-3 0  9991",
    "line2": "2 60514  97.3797 186.1890 0003883 157.3085 202.8332 15.38870856 92208",
    "meta": {
      "display_name": "PlanetScope-60514",
      "type": "optical",
      "swath_km": 8.0,
      "resolution_m": 4.0,
      "off_nadir_deg": 0,
      "altitude_km": 525.0,
      "priority": 10
    }
  },
  "60516": {
    "name": "FLOCK 4BE-6",
    "line1": "1 60516U 24149BA  26102.49964125  .00011018  00000+0  29845-3 0  9990",
    "line2": "2 60516  97.3795 185.7080 0004635 157.5375 202.6073 15.37826734 92175",
    "meta": {
      "display_name": "PlanetScope-60516",
      "type": "optical",
      "swath_km": 8.0,
      "resolution_m": 4.0,
      "off_nadir_deg": 0,
      "altitude_km": 525.0,
      "priority": 10
    }
  },
  "60517": {
    "name": "FLOCK 4BE-14",
    "line1": "1 60517U 24149BB  26102.79873969  .00011317  00000+0  29473-3 0  9998",
    "line2": "2 60517  97.3704 186.0977 0005601 158.9810 201.1667 15.39027575 92269",
    "meta": {
      "display_name": "PlanetScope-60517",
      "type": "optical",
      "swath_km": 8.0,
      "resolution_m": 4.0,
      "off_nadir_deg": 0,
      "altitude_km": 525.0,
      "priority": 10
    }
  },
  "60518": {
    "name": "FLOCK 4BE-1",
    "line1": "1 60518U 24149BC  26102.68462515  .00011338  00000+0  28155-3 0  9997",
    "line2": "2 60518  97.3782 187.0349 0005218 159.7647 200.3807 15.40487628 92281",
    "meta": {
      "display_name": "PlanetScope-60518",
      "type": "optical",
      "swath_km": 8.0,
      "resolution_m": 4.0,
      "off_nadir_deg": 0,
      "altitude_km": 525.0,
      "priority": 10
    }
  },
  "60519": {
    "name": "FLOCK 4BE-28",
    "line1": "1 60519U 24149BD  26102.66453671  .00013648  00000+0  31496-3 0  9997",
    "line2": "2 60519  97.3752 187.5428 0005310 155.5745 204.5755 15.42657201 92330",
    "meta": {
      "display_name": "PlanetScope-60519",
      "type": "optical",
      "swath_km": 8.0,
      "resolution_m": 4.0,
      "off_nadir_deg": 0,
      "altitude_km": 525.0,
      "priority": 10
    }
  },
  "60559": {
    "name": "FLOCK 4BE-5",
    "line1": "1 60559U 24149CV  26102.69590919  .00011291  00000+0  30012-3 0  9996",
    "line2": "2 60559  97.3845 186.1627 0004222 158.5437 201.5986 15.38407348 92204",
    "meta": {
      "display_name": "PlanetScope-60559",
      "type": "optical",
      "swath_km": 8.0,
      "resolution_m": 4.0,
      "off_nadir_deg": 0,
      "altitude_km": 525.0,
      "priority": 10
    }
  },
  "60560": {
    "name": "FLOCK 4BE-12",
    "line1": "1 60560U 24149CW  26102.21286043  .00101927  00000+0  14415-2 0  9990",
    "line2": "2 60560  97.3685 187.0074 0006356 191.1904 168.9210 15.56156189 92262",
    "meta": {
      "display_name": "PlanetScope-60560",
      "type": "optical",
      "swath_km": 8.0,
      "resolution_m": 4.0,
      "off_nadir_deg": 0,
      "altitude_km": 525.0,
      "priority": 10
    }
  },
  "60558": {
    "name": "FLOCK 4BE-35",
    "line1": "1 60558U 24149CU  26102.20788602  .00078988  00000+0  13291-2 0  9995",
    "line2": "2 60558  97.3731 186.0989 0005535 184.3106 175.8100 15.51440675 92188",
    "meta": {
      "display_name": "PlanetScope-60558",
      "type": "optical",
      "swath_km": 8.0,
      "resolution_m": 4.0,
      "off_nadir_deg": 0,
      "altitude_km": 525.0,
      "priority": 10
    }
  },
  "60561": {
    "name": "FLOCK 4BE-3",
    "line1": "1 60561U 24149CX  26102.80248102  .00011308  00000+0  28937-3 0  9998",
    "line2": "2 60561  97.3705 186.1892 0005469 153.3853 206.7674 15.39569958 92270",
    "meta": {
      "display_name": "PlanetScope-60561",
      "type": "optical",
      "swath_km": 8.0,
      "resolution_m": 4.0,
      "off_nadir_deg": 0,
      "altitude_km": 525.0,
      "priority": 10
    }
  },
  "60563": {
    "name": "FLOCK 4BE-19",
    "line1": "1 60563U 24149CZ  26102.69397568  .00013290  00000+0  31400-3 0  9999",
    "line2": "2 60563  97.3745 187.3223 0005169 156.0237 204.1251 15.41954853 92324",
    "meta": {
      "display_name": "PlanetScope-60563",
      "type": "optical",
      "swath_km": 8.0,
      "resolution_m": 4.0,
      "off_nadir_deg": 0,
      "altitude_km": 525.0,
      "priority": 10
    }
  },
  "63229": {
    "name": "SPACEEYE-T1",
    "line1": "1 63229U 25052V   26102.45957750  .00003495  00000+0  15647-3 0  9995",
    "line2": "2 63229  97.4025 356.0632 0005813  39.1984 320.9672 15.21912794 59843",
    "meta": {
      "display_name": "SpaceEye-T",
      "type": "optical",
      "swath_km": 12,
      "resolution_m": 0.25,
      "off_nadir_deg": 45,
      "altitude_km": 510,
      "priority": 1
    }
  }
}